TEVEL2-5                
1 63214U 25052E   26068.96660006  .00021339  00000+0  71765-3 0  9991
2 63214  97.4013 325.3677 0004700  95.3936 264.7842 15.30817434 54919
STARLINK-36493          
1 67456U 26008M   26068.42628467  .00035696  00000+0  12998-2 0  9994
2 67456  43.0004 206.5646 0002207 280.1015  79.9588 15.27594532  9534
